{"type": "FeatureCollection", "features": [ {"type": "Feature", "properties": {"norad_id": 32260, "name": "GPS BIIRM-4 (PRN 15)", "group": "gnss", "lat": -30.41020910508534, "lon": 61.99636929829162, "alt_km": 20425.03711114784, "timestamp": "2025-12-25T03:55:56.598569+00:00", "meta": {"OBJECT_NAME": "GPS BIIRM-4 (PRN 15)", "OBJECT_ID": "2007-047A", "EPOCH": "2025-12-23T05:22:00.882048", "MEAN_MOTION": 2.00564099, "ECCENTRICITY": 0.01640403, "INCLINATION": 53.9621, "RA_OF_ASC_NODE": 87.3254, "ARG_OF_PERICENTER": 85.3777, "MEAN_ANOMALY": 276.5133, "EPHEMERIS_TYPE": 0, "CLASSIFICATION_TYPE": "U", "NORAD_CAT_ID": 32260, "ELEMENT_SET_NO": 999, "REV_AT_EPOCH": 13328, "BSTAR": 0, "MEAN_MOTION_DOT": -6e-08, "MEAN_MOTION_DDOT": 0}, "tle": {"line1": "1 32260U 07047A   25357.22362132 -.00000006  00000+0  00000+0 0  9999", "line2": "2 32260  53.9621  87.3254 0164040  85.3777 276.5133  2.00564099133281"}}, "geometry": {"type": "Point", "coordinates": [61.99636929829162, -30.41020910508534]}}, {"type": "Feature", "properties": {"norad_id": 32275, "name": "COSMOS 2433 (720)", "group": "gnss", "lat": -64.78173321698166, "lon": -144.53789120561424, "alt_km": 19123.405527816798, "timestamp": "2025-12-25T03:55:56.598582+00:00", "meta": {"OBJECT_NAME": "COSMOS 2433 (720)", "OBJECT_ID": "2007-052A", "EPOCH": "2025-12-24T08:26:16.805760", "MEAN_MOTION": 2.13104186, "ECCENTRICITY": 0.0005104, "INCLINATION": 65.677, "RA_OF_ASC_NODE": 321.8159, "ARG_OF_PERICENTER": 257.0223, "MEAN_ANOMALY": 102.9214, "EPHEMERIS_TYPE": 0, "CLASSIFICATION_TYPE": "U", "NORAD_CAT_ID": 32275, "ELEMENT_SET_NO": 999, "REV_AT_EPOCH": 14133, "BSTAR": 0, "MEAN_MOTION_DOT": -3.3e-07, "MEAN_MOTION_DDOT": 0}, "tle": {"line1": "1 32275U 07052A   25358.35158340 -.00000033  00000+0  00000+0 0  9990", "line2": "2 32275  65.6770 321.8159 0005104 257.0223 102.9214  2.13104186141339"}}, "geometry": {"type": "Point", "coordinates": [-144.53789120561424, -64.78173321698166]}}, {"type": "Feature", "properties": {"norad_id": 32276, "name": "COSMOS 2432 (719)", "group": "gnss", "lat": -24.840815085589885, "lon": 153.9673596290382, "alt_km": 19141.967868549193, "timestamp": "2025-12-25T03:55:56.598594+00:00", "meta": {"OBJECT_NAME": "COSMOS 2432 (719)", "OBJECT_ID": "2007-052B", "EPOCH": "2025-12-24T04:32:38.772960", "MEAN_MOTION": 2.13103387, "ECCENTRICITY": 0.00113791, "INCLINATION": 65.6931, "RA_OF_ASC_NODE": 321.9458, "ARG_OF_PERICENTER": 314.7871, "MEAN_ANOMALY": 225.1187, "EPHEMERIS_TYPE": 0, "CLASSIFICATION_TYPE": "U", "NORAD_CAT_ID": 32276, "ELEMENT_SET_NO": 999, "REV_AT_EPOCH": 14135, "BSTAR": 0, "MEAN_MOTION_DOT": -3.3e-07, "MEAN_MOTION_DDOT": 0}, "tle": {"line1": "1 32276U 07052B   25358.18933765 -.00000033  00000+0  00000+0 0  9994", "line2": "2 32276  65.6931 321.9458 0011379 314.7871 225.1187  2.13103387141354"}}, "geometry": {"type": "Point", "coordinates": [153.9673596290382, -24.840815085589885]}}, {"type": "Feature", "properties": {"norad_id": 32384, "name": "GPS BIIRM-5 (PRN 29)", "group": "gnss", "lat": 55.15745474037267, "lon": 13.979552872441234, "alt_km": 20149.378091123453, "timestamp": "2025-12-25T03:55:56.598606+00:00", "meta": {"OBJECT_NAME": "GPS BIIRM-5 (PRN 29)", "OBJECT_ID": "2007-062A", "EPOCH": "2025-12-24T04:33:25.319232", "MEAN_MOTION": 2.00549289, "ECCENTRICITY": 0.00313762, "INCLINATION": 55.1723, "RA_OF_ASC_NODE": 281.1867, "ARG_OF_PERICENTER": 162.3601, "MEAN_ANOMALY": 306.4071, "EPHEMERIS_TYPE": 0, "CLASSIFICATION_TYPE": "U", "NORAD_CAT_ID": 32384, "ELEMENT_SET_NO": 999, "REV_AT_EPOCH": 13200, "BSTAR": 0, "MEAN_MOTION_DOT": -2.2e-07, "MEAN_MOTION_DDOT": 0}, "tle": {"line1": "1 32384U 07062A   25358.18987638 -.00000022  00000+0  00000+0 0  9991", "line2": "2 32384  55.1723 281.1867 0031376 162.3601 306.4071  2.00549289132003"}}, "geometry": {"type": "Point", "coordinates": [13.979552872441234, 55.15745474037267]}}, {"type": "Feature", "properties": {"norad_id": 32393, "name": "COSMOS 2434 (721)", "group": "gnss", "lat": 23.505124897078556, "lon": 5.701037232479158, "alt_km": 19125.488714407627, "timestamp": "2025-12-25T03:55:56.598622+00:00", "meta": {"OBJECT_NAME": "COSMOS 2434 (721)", "OBJECT_ID": "2007-065A", "EPOCH": "2025-12-24T05:14:54.087648", "MEAN_MOTION": 2.13101448, "ECCENTRICITY": 0.00048186, "INCLINATION": 64.3158, "RA_OF_ASC_NODE": 197.8158, "ARG_OF_PERICENTER": 72.4186, "MEAN_ANOMALY": 76.1522, "EPHEMERIS_TYPE": 0, "CLASSIFICATION_TYPE": "U", "NORAD_CAT_ID": 32393, "ELEMENT_SET_NO": 999, "REV_AT_EPOCH": 14004, "BSTAR": 0, "MEAN_MOTION_DOT": 9.8e-07, "MEAN_MOTION_DDOT": 0}, "tle": {"line1": "1 32393U 07065A   25358.21868157  .00000098  00000+0  00000+0 0  9994", "line2": "2 32393  64.3158 197.8158 0004818  72.4186  76.1522  2.13101448140043"}}, "geometry": {"type": "Point", "coordinates": [5.701037232479158, 23.505124897078556]}}, {"type": "Feature", "properties": {"norad_id": 32395, "name": "COSMOS 2436 (723)", "group": "gnss", "lat": -59.78663730987492, "lon": 142.1207324632548, "alt_km": 19131.39664177456, "timestamp": "2025-12-25T03:55:56.598646+00:00", "meta": {"OBJECT_NAME": "COSMOS 2436 (723)", "OBJECT_ID": "2007-065C", "EPOCH": "2025-12-23T14:51:15.098400", "MEAN_MOTION": 2.13100222, "ECCENTRICITY": 0.00178112, "INCLINATION": 64.3245, "RA_OF_ASC_NODE": 197.9064, "ARG_OF_PERICENTER": 10.214, "MEAN_ANOMALY": 171.2752, "EPHEMERIS_TYPE": 0, "CLASSIFICATION_TYPE": "U", "NORAD_CAT_ID": 32395, "ELEMENT_SET_NO": 999, "REV_AT_EPOCH": 13998, "BSTAR": 0, "MEAN_MOTION_DOT": 9.6e-07, "MEAN_MOTION_DDOT": 0}, "tle": {"line1": "1 32395U 07065C   25357.61892475  .00000096  00000+0  00000+0 0  9997", "line2": "2 32395  64.3245 197.9064 0017811  10.2140 171.2752  2.13100222139988"}}, "geometry": {"type": "Point", "coordinates": [142.1207324632548, -59.78663730987492]}}, {"type": "Feature", "properties": {"norad_id": 32711, "name": "GPS BIIRM-6 (PRN 07)", "group": "gnss", "lat": 14.739198630408014, "lon": 167.6994180819378, "alt_km": 20542.594721352438, "timestamp": "2025-12-25T03:55:56.598661+00:00", "meta": {"OBJECT_NAME": "GPS BIIRM-6 (PRN 07)", "OBJECT_ID": "2008-012A", "EPOCH": "2025-12-23T15:24:58.036896", "MEAN_MOTION": 2.00566087, "ECCENTRICITY": 0.0202929, "INCLINATION": 54.4783, "RA_OF_ASC_NODE": 156.9378, "ARG_OF_PERICENTER": 245.0761, "MEAN_ANOMALY": 112.7872, "EPHEMERIS_TYPE": 0, "CLASSIFICATION_TYPE": "U", "NORAD_CAT_ID": 32711, "ELEMENT_SET_NO": 999, "REV_AT_EPOCH": 13023, "BSTAR": 0, "MEAN_MOTION_DOT": 8.4e-07, "MEAN_MOTION_DDOT": 0}, "tle": {"line1": "1 32711U 08012A   25357.64233839  .00000084  00000+0  00000+0 0  9995", "line2": "2 32711  54.4783 156.9378 0202929 245.0761 112.7872  2.00566087130236"}}, "geometry": {"type": "Point", "coordinates": [167.6994180819378, 14.739198630408014]}}, {"type": "Feature", "properties": {"norad_id": 35752, "name": "GPS BIIRM-8 (PRN 05)", "group": "gnss", "lat": 29.104074682592323, "lon": 56.28181656521126, "alt_km": 20082.552203726544, "timestamp": "2025-12-25T03:55:56.598673+00:00", "meta": {"OBJECT_NAME": "GPS BIIRM-8 (PRN 05)", "OBJECT_ID": "2009-043A", "EPOCH": "2025-12-24T04:14:37.985856", "MEAN_MOTION": 2.00564964, "ECCENTRICITY": 0.00515883, "INCLINATION": 56.0988, "RA_OF_ASC_NODE": 34.3322, "ARG_OF_PERICENTER": 81.7352, "MEAN_ANOMALY": 321.9432, "EPHEMERIS_TYPE": 0, "CLASSIFICATION_TYPE": "U", "NORAD_CAT_ID": 35752, "ELEMENT_SET_NO": 999, "REV_AT_EPOCH": 11985, "BSTAR": 0, "MEAN_MOTION_DOT": -5.1e-07, "MEAN_MOTION_DDOT": 0}, "tle": {"line1": "1 35752U 09043A   25358.17682854 -.00000051  00000+0  00000+0 0  9997", "line2": "2 35752  56.0988  34.3322 0051588  81.7352 321.9432  2.00564964119854"}}, "geometry": {"type": "Point", "coordinates": [56.28181656521126, 29.104074682592323]}}, {"type": "Feature", "properties": {"norad_id": 36111, "name": "COSMOS 2456 (730)", "group": "gnss", "lat": -43.293606185307816, "lon": 50.76859814756485, "alt_km": 19126.0818595642, "timestamp": "2025-12-25T03:55:56.598685+00:00", "meta": {"OBJECT_NAME": "COSMOS 2456 (730)", "OBJECT_ID": "2009-070A", "EPOCH": "2025-12-24T01:59:16.692576", "MEAN_MOTION": 2.13103745, "ECCENTRICITY": 0.00036505, "INCLINATION": 64.9059, "RA_OF_ASC_NODE": 76.9503, "ARG_OF_PERICENTER": 295.0224, "MEAN_ANOMALY": 266.4736, "EPHEMERIS_TYPE": 0, "CLASSIFICATION_TYPE": "U", "NORAD_CAT_ID": 36111, "ELEMENT_SET_NO": 999, "REV_AT_EPOCH": 12469, "BSTAR": 0, "MEAN_MOTION_DOT": -1e-08, "MEAN_MOTION_DDOT": 0}, "tle": {"line1": "1 36111U 09070A   25358.08283209 -.00000001  00000+0  00000+0 0  9993", "line2": "2 36111  64.9059  76.9503 0003650 295.0224 266.4736  2.13103745124697"}}, "geometry": {"type": "Point", "coordinates": [50.76859814756485, -43.293606185307816]}}, {"type": "Feature", "properties": {"norad_id": 36112, "name": "COSMOS 2457 (733)", "group": "gnss", "lat": 63.03074223148735, "lon": 143.7236611488757, "alt_km": 19121.76286509294, "timestamp": "2025-12-25T03:55:56.598697+00:00", "meta": {"OBJECT_NAME": "COSMOS 2457 (733)", "OBJECT_ID": "2009-070B", "EPOCH": "2025-12-23T15:49:23.328192", "MEAN_MOTION": 2.13101141, "ECCENTRICITY": 0.00045057, "INCLINATION": 64.8913, "RA_OF_ASC_NODE": 76.812, "ARG_OF_PERICENTER": 162.7292, "MEAN_ANOMALY": 202.8862, "EPHEMERIS_TYPE": 0, "CLASSIFICATION_TYPE": "U", "NORAD_CAT_ID": 36112, "ELEMENT_SET_NO": 999, "REV_AT_EPOCH": 12469, "BSTAR": 0, "MEAN_MOTION_DOT": -1e-08, "MEAN_MOTION_DDOT": 0}, "tle": {"line1": "1 36112U 09070B   25357.65929778 -.00000001  00000+0  00000+0 0  9994", "line2": "2 36112  64.8913  76.8120 0004505 162.7292 202.8862  2.13101141124697"}}, "geometry": {"type": "Point", "coordinates": [143.7236611488757, 63.03074223148735]}}]}